[{"OBJECT_NAME":"ONEWEB-0597","OBJECT_ID":"2022-166X","EPOCH":"2026-05-23T07:23:17.839968","MEAN_MOTION":13.21824707,"ECCENTRICITY":0.0002069,"INCLINATION":87.9253,"RA_OF_ASC_NODE":248.9381,"ARG_OF_PERICENTER":98.4291,"MEAN_ANOMALY":261.7077,"EPHEMERIS_TYPE":0,"CLASSIFICATION_TYPE":"U","NORAD_CAT_ID":54663,"ELEMENT_SET_NO":999,"REV_AT_EPOCH":16825,"BSTAR":0.00010554,"MEAN_MOTION_DOT":5.7e-07,"MEAN_MOTION_DDOT":0.0},{"OBJECT_NAME":"ONEWEB-0600","OBJECT_ID":"2022-166Y","EPOCH":"2026-05-23T08:45:39.165696","MEAN_MOTION":13.21826582,"ECCENTRICITY":0.0001962,"INCLINATION":87.9251,"RA_OF_ASC_NODE":248.918,"ARG_OF_PERICENTER":93.7288,"MEAN_ANOMALY":266.407,"EPHEMERIS_TYPE":0,"CLASSIFICATION_TYPE":"U","NORAD_CAT_ID":54664,"ELEMENT_SET_NO":999,"REV_AT_EPOCH":16823,"BSTAR":-5.0027e-05,"MEAN_MOTION_DOT":-8e-08,"MEAN_MOTION_DDOT":0.0},{"OBJECT_NAME":"ONEWEB-0601","OBJECT_ID":"2022-166Z","EPOCH":"2026-05-23T08:33:31.891104","MEAN_MOTION":13.21827534,"ECCENTRICITY":0.0002259,"INCLINATION":87.9251,"RA_OF_ASC_NODE":248.936,"ARG_OF_PERICENTER":99.0588,"MEAN_ANOMALY":261.0802,"EPHEMERIS_TYPE":0,"CLASSIFICATION_TYPE":"U","NORAD_CAT_ID":54665,"ELEMENT_SET_NO":999,"REV_AT_EPOCH":16842,"BSTAR":0.00018495,"MEAN_MOTION_DOT":8.9e-07,"MEAN_MOTION_DDOT":0.0},{"OBJECT_NAME":"ONEWEB-0602","OBJECT_ID":"2022-166AA","EPOCH":"2026-05-23T07:43:52.151232","MEAN_MOTION":13.21824225,"ECCENTRICITY":0.0002014,"INCLINATION":87.9248,"RA_OF_ASC_NODE":248.9487,"ARG_OF_PERICENTER":92.2648,"MEAN_ANOMALY":267.8717,"EPHEMERIS_TYPE":0,"CLASSIFICATION_TYPE":"U","NORAD_CAT_ID":54666,"ELEMENT_SET_NO":999,"REV_AT_EPOCH":16826,"BSTAR":0.00019839,"MEAN_MOTION_DOT":9.5e-07,"MEAN_MOTION_DDOT":0.0},{"OBJECT_NAME":"ONEWEB-0603","OBJECT_ID":"2022-166AB","EPOCH":"2026-05-23T07:52:22.079712","MEAN_MOTION":13.2182502,"ECCENTRICITY":0.0002073,"INCLINATION":87.9261,"RA_OF_ASC_NODE":248.9022,"ARG_OF_PERICENTER":97.6948,"MEAN_ANOMALY":262.4421,"EPHEMERIS_TYPE":0,"CLASSIFICATION_TYPE":"U","NORAD_CAT_ID":54667,"ELEMENT_SET_NO":999,"REV_AT_EPOCH":16819,"BSTAR":0.00024132,"MEAN_MOTION_DOT":1.13e-06,"MEAN_MOTION_DDOT":0.0},{"OBJECT_NAME":"ONEWEB-0604","OBJECT_ID":"2022-166AC","EPOCH":"2026-05-23T07:35:25.018656","MEAN_MOTION":13.21825109,"ECCENTRICITY":0.00019,"INCLINATION":87.9262,"RA_OF_ASC_NODE":248.92,"ARG_OF_PERICENTER":100.5359,"MEAN_ANOMALY":259.5989,"EPHEMERIS_TYPE":0,"CLASSIFICATION_TYPE":"U","NORAD_CAT_ID":54668,"ELEMENT_SET_NO":999,"REV_AT_EPOCH":16815,"BSTAR":0.00019871,"MEAN_MOTION_DOT":9.5e-07,"MEAN_MOTION_DDOT":0.0},{"OBJECT_NAME":"ONEWEB-0605","OBJECT_ID":"2022-166AD","EPOCH":"2026-05-23T07:25:42.498624","MEAN_MOTION":13.21823595,"ECCENTRICITY":0.0002583,"INCLINATION":87.9254,"RA_OF_ASC_NODE":248.9367,"ARG_OF_PERICENTER":106.1912,"MEAN_ANOMALY":253.9507,"EPHEMERIS_TYPE":0,"CLASSIFICATION_TYPE":"U","NORAD_CAT_ID":54669,"ELEMENT_SET_NO":999,"REV_AT_EPOCH":16822,"BSTAR":8.6196e-05,"MEAN_MOTION_DOT":4.9e-07,"MEAN_MOTION_DDOT":0.0},{"OBJECT_NAME":"ONEWEB-0606","OBJECT_ID":"2022-166AE","EPOCH":"2026-05-23T13:24:13.231872","MEAN_MOTION":13.21825282,"ECCENTRICITY":0.0001836,"INCLINATION":87.925,"RA_OF_ASC_NODE":248.8999,"ARG_OF_PERICENTER":102.4449,"MEAN_ANOMALY":257.689,"EPHEMERIS_TYPE":0,"CLASSIFICATION_TYPE":"U","NORAD_CAT_ID":54670,"ELEMENT_SET_NO":999,"REV_AT_EPOCH":16831,"BSTAR":0.00023122000000000003,"MEAN_MOTION_DOT":1.09e-06,"MEAN_MOTION_DDOT":0.0},{"OBJECT_NAME":"ONEWEB-0607","OBJECT_ID":"2022-166AF","EPOCH":"2026-05-23T07:08:45.463488","MEAN_MOTION":13.2182743,"ECCENTRICITY":0.0002047,"INCLINATION":87.9259,"RA_OF_ASC_NODE":248.921,"ARG_OF_PERICENTER":96.1232,"MEAN_ANOMALY":264.0135,"EPHEMERIS_TYPE":0,"CLASSIFICATION_TYPE":"U","NORAD_CAT_ID":54671,"ELEMENT_SET_NO":999,"REV_AT_EPOCH":16825,"BSTAR":-6.601e-05,"MEAN_MOTION_DOT":-1.4e-07,"MEAN_MOTION_DDOT":0.0},{"OBJECT_NAME":"ONEWEB-0608","OBJECT_ID":"2022-166AG","EPOCH":"2026-05-23T12:45:28.137888","MEAN_MOTION":13.21823874,"ECCENTRICITY":0.0002532,"INCLINATION":87.9263,"RA_OF_ASC_NODE":248.8706,"ARG_OF_PERICENTER":99.3664,"MEAN_ANOMALY":260.7756,"EPHEMERIS_TYPE":0,"CLASSIFICATION_TYPE":"U","NORAD_CAT_ID":54672,"ELEMENT_SET_NO":999,"REV_AT_EPOCH":16829,"BSTAR":0.00023716,"MEAN_MOTION_DOT":1.11e-06,"MEAN_MOTION_DDOT":0.0},{"OBJECT_NAME":"ONEWEB-0610","OBJECT_ID":"2022-166AH","EPOCH":"2026-05-23T06:49:23.023200","MEAN_MOTION":13.21826798,"ECCENTRICITY":0.000256,"INCLINATION":87.9252,"RA_OF_ASC_NODE":248.9363,"ARG_OF_PERICENTER":93.3377,"MEAN_ANOMALY":266.805,"EPHEMERIS_TYPE":0,"CLASSIFICATION_TYPE":"U","NORAD_CAT_ID":54673,"ELEMENT_SET_NO":999,"REV_AT_EPOCH":16816,"BSTAR":7.773900000000001e-05,"MEAN_MOTION_DOT":4.5e-07,"MEAN_MOTION_DDOT":0.0},{"OBJECT_NAME":"ONEWEB-0611","OBJECT_ID":"2022-166AJ","EPOCH":"2026-05-23T06:39:41.508864","MEAN_MOTION":13.2182638,"ECCENTRICITY":0.0001873,"INCLINATION":87.9251,"RA_OF_ASC_NODE":248.9338,"ARG_OF_PERICENTER":103.1978,"MEAN_ANOMALY":256.9365,"EPHEMERIS_TYPE":0,"CLASSIFICATION_TYPE":"U","NORAD_CAT_ID":54674,"ELEMENT_SET_NO":999,"REV_AT_EPOCH":16815,"BSTAR":-7.1526e-05,"MEAN_MOTION_DOT":-1.7e-07,"MEAN_MOTION_DDOT":0.0},{"OBJECT_NAME":"ONEWEB-0612","OBJECT_ID":"2022-166AK","EPOCH":"2026-05-23T12:26:04.017120","MEAN_MOTION":13.2182777,"ECCENTRICITY":0.000219,"INCLINATION":87.9264,"RA_OF_ASC_NODE":248.8787,"ARG_OF_PERICENTER":99.3743,"MEAN_ANOMALY":260.7639,"EPHEMERIS_TYPE":0,"CLASSIFICATION_TYPE":"U","NORAD_CAT_ID":54675,"ELEMENT_SET_NO":999,"REV_AT_EPOCH":16817,"BSTAR":0.00018940000000000002,"MEAN_MOTION_DOT":9.1e-07,"MEAN_MOTION_DDOT":0.0},{"OBJECT_NAME":"ONEWEB-0615","OBJECT_ID":"2022-166AL","EPOCH":"2026-05-23T06:30:00.587232","MEAN_MOTION":13.21824473,"ECCENTRICITY":0.0001718,"INCLINATION":87.9253,"RA_OF_ASC_NODE":248.9449,"ARG_OF_PERICENTER":98.0122,"MEAN_ANOMALY":262.1207,"EPHEMERIS_TYPE":0,"CLASSIFICATION_TYPE":"U","NORAD_CAT_ID":54676,"ELEMENT_SET_NO":999,"REV_AT_EPOCH":16815,"BSTAR":-0.00012017999999999999,"MEAN_MOTION_DOT":-3.7e-07,"MEAN_MOTION_DDOT":0.0},{"OBJECT_NAME":"ONEWEB-0655","OBJECT_ID":"2022-166AM","EPOCH":"2026-05-23T07:45:06.223680","MEAN_MOTION":13.2182492,"ECCENTRICITY":0.0002049,"INCLINATION":87.9251,"RA_OF_ASC_NODE":248.9359,"ARG_OF_PERICENTER":92.7295,"MEAN_ANOMALY":267.4074,"EPHEMERIS_TYPE":0,"CLASSIFICATION_TYPE":"U","NORAD_CAT_ID":54677,"ELEMENT_SET_NO":999,"REV_AT_EPOCH":16815,"BSTAR":0.00021046999999999998,"MEAN_MOTION_DOT":1e-06,"MEAN_MOTION_DDOT":0.0},{"OBJECT_NAME":"ONEWEB-0659","OBJECT_ID":"2022-166AN","EPOCH":"2026-05-23T08:09:18.838368","MEAN_MOTION":13.21826877,"ECCENTRICITY":0.0001958,"INCLINATION":87.9254,"RA_OF_ASC_NODE":248.9327,"ARG_OF_PERICENTER":102.3075,"MEAN_ANOMALY":257.8278,"EPHEMERIS_TYPE":0,"CLASSIFICATION_TYPE":"U","NORAD_CAT_ID":54678,"ELEMENT_SET_NO":999,"REV_AT_EPOCH":16824,"BSTAR":4.55e-05,"MEAN_MOTION_DOT":3.2e-07,"MEAN_MOTION_DDOT":0.0}]