ONEWEB-0597             
1 54663U 22166X   26143.30784537  .00000057  00000+0  10554-3 0  9993
2 54663  87.9253 248.9381 0002069  98.4291 261.7077 13.21824707168252
ONEWEB-0600             
1 54664U 22166Y   26143.36503664 -.00000008  00000+0 -50027-4 0  9998
2 54664  87.9251 248.9180 0001962  93.7288 266.4070 13.21826582168239
ONEWEB-0601             
1 54665U 22166Z   26143.35661911  .00000089  00000+0  18495-3 0  9997
2 54665  87.9251 248.9360 0002259  99.0588 261.0802 13.21827534168425
ONEWEB-0602             
1 54666U 22166AA  26143.32213138  .00000095  00000+0  19839-3 0  9999
2 54666  87.9248 248.9487 0002014  92.2648 267.8717 13.21824225168268
ONEWEB-0603             
1 54667U 22166AB  26143.32803333  .00000113  00000+0  24132-3 0  9995
2 54667  87.9261 248.9022 0002073  97.6948 262.4421 13.21825020168195
ONEWEB-0604             
1 54668U 22166AC  26143.31626179  .00000095  00000+0  19871-3 0  9999
2 54668  87.9262 248.9200 0001900 100.5359 259.5989 13.21825109168153
ONEWEB-0605             
1 54669U 22166AD  26143.30951966  .00000049  00000+0  86196-4 0  9998
2 54669  87.9254 248.9367 0002583 106.1912 253.9507 13.21823595168223
ONEWEB-0606             
1 54670U 22166AE  26143.55848648  .00000109  00000+0  23122-3 0  9995
2 54670  87.9250 248.8999 0001836 102.4449 257.6890 13.21825282168316
ONEWEB-0607             
1 54671U 22166AF  26143.29774842 -.00000014  00000+0 -66010-4 0  9992
2 54671  87.9259 248.9210 0002047  96.1232 264.0135 13.21827430168251
ONEWEB-0608             
1 54672U 22166AG  26143.53157567  .00000111  00000+0  23716-3 0  9990
2 54672  87.9263 248.8706 0002532  99.3664 260.7756 13.21823874168293
ONEWEB-0610             
1 54673U 22166AH  26143.28429425  .00000045  00000+0  77739-4 0  9999
2 54673  87.9252 248.9363 0002560  93.3377 266.8050 13.21826798168166
ONEWEB-0611             
1 54674U 22166AJ  26143.27756376 -.00000017  00000+0 -71526-4 0  9996
2 54674  87.9251 248.9338 0001873 103.1978 256.9365 13.21826380168156
ONEWEB-0612             
1 54675U 22166AK  26143.51810205  .00000091  00000+0  18940-3 0  9996
2 54675  87.9264 248.8787 0002190  99.3743 260.7639 13.21827770168170
ONEWEB-0615             
1 54676U 22166AL  26143.27084013 -.00000037  00000+0 -12018-3 0  9992
2 54676  87.9253 248.9449 0001718  98.0122 262.1207 13.21824473168159
ONEWEB-0655             
1 54677U 22166AM  26143.32298870  .00000100  00000+0  21047-3 0  9998
2 54677  87.9251 248.9359 0002049  92.7295 267.4074 13.21824920168155
ONEWEB-0659             
1 54678U 22166AN  26143.33980137  .00000032  00000+0  45500-4 0  9999
2 54678  87.9254 248.9327 0001958 102.3075 257.8278 13.21826877168248
